0 FENGYUN 1C DEB
1 31988U 99025CPR 13283.52593742  .00001599  00000-0  11027-2 0  4439
2 31988 098.1682 023.0325 0074744 057.8341 303.0060 13.99114484322029
0 FENGYUN 1C DEB
1 31988U 99025CPR 13284.52712596  .00001596  00000-0  11006-2 0  4445
2 31988 098.1694 023.9297 0074735 054.9065 305.9090 13.99117730322166
0 FENGYUN 1C DEB
1 31988U 99025CPR 13286.52949540  .00001608  00000-0  11088-2 0  4453
2 31988 098.1684 025.7155 0074485 049.4963 311.2715 13.99124440322447
0 FENGYUN 1C DEB
1 31988U 99025CPR 13289.03244145  .00001634  00000-0  11265-2 0  4468
2 31988 098.1704 027.9526 0074173 042.9130 317.7931 13.99133154322795
0 FENGYUN 1C DEB
1 31988U 99025CPR 13291.03478361  .00001729  00000-0  11912-2 0  4475
2 31988 098.1705 029.7381 0072961 037.9288 322.7336 13.99141450323071
0 FENGYUN 1C DEB
1 31988U 99025CPR 13293.03710883  .00001863  00000-0  12819-2 0  4482
2 31988 098.1705 031.5264 0072808 031.8076 328.7741 13.99150704323359
0 FENGYUN 1C DEB
1 31988U 99025CPR 13295.46848740  .00001897  00000-0  13044-2 0  4494
2 31988 098.1702 033.6926 0072826 024.6744 335.7986 13.99160618323697
